*******************************************************************************
Ephemeris / WWW_USER Mon Mar 24 07:53:58 2025 Pasadena, USA      / Horizons    
*******************************************************************************
Target body name: (2018 SL3)                      {source: JPL#9}
Center body name: Earth (399)                     {source: DE441}
Center-site name: Mauna Kea
*******************************************************************************
Start time      : A.D. 2018-Dec-22 03:58:00.0000 UT      
Stop  time      : A.D. 2018-Dec-22 16:42:00.0000 UT      
Step-size       : 1 minutes
*******************************************************************************
Target pole/equ : undefined
Target radii    : undefined                                                    
Center geodetic : 204.5278, 19.8260847, 4.21024   {E-lon(deg),Lat(deg),Alt(km)}
Center cylindric: 204.5278, 6006.35451, 2151.0229 {E-lon(deg),Dxy(km),Dz(km)}
Center pole/equ : ITRF93                          {East-longitude positive}
Center radii    : 6378.137, 6378.137, 6356.752 km {Equator_a, b, pole_c}       
Target primary  : Sun
Vis. interferer : MOON (R_eq= 1737.400) km        {source: DE441}
Rel. light bend : Sun                             {source: DE441}
Rel. lght bnd GM: 1.3271E+11 km^3/s^2                                          
Small-body perts: Yes                             {source: SB441-N16}
Atmos refraction: NO (AIRLESS)
RA format       : HMS
Time format     : CAL 
Calendar mode   : Mixed Julian/Gregorian
RTS-only print  : NO       
EOP file        : eop.250321.p250617                                           
EOP coverage    : DATA-BASED 1962-JAN-20 TO 2025-MAR-21. PREDICTS-> 2025-JUN-16
Units conversion: 1 au= 149597870.700 km, c= 299792.458 km/s, 1 day= 86400.0 s 
Table cut-offs 1: Elevation (-90.0deg=NO ),Airmass (>38.000=NO), Daylight (YES)
Table cut-offs 2: Solar elongation (  0.0,180.0=NO ),Local Hour Angle( 0.0=NO )
Table cut-offs 3: RA/DEC angular rate (     0.0=NO )                           
*******************************************************************************
Initial IAU76/J2000 heliocentric ecliptic osculating elements (au, days, deg.):
  EPOCH=  2458395.5 ! 2018-Oct-04.00 (TDB)         Residual RMS= .22865        
   EC= .523832704749462    QR= .7523817427125933   TP= 2458455.4342692108      
   OM= 5.37828463666876    W=  89.37669799750542   IN= 4.07069530013935        
  Equivalent ICRF heliocentric cartesian coordinates (au, au/d):
   X= 1.077301312774806E+00  Y= 1.718701187822678E-01  Z= 8.135917115484240E-02
  VX=-1.117713770282307E-02 VY= 1.338322199759621E-02 VZ= 7.048365308861806E-03
Asteroid physical parameters (km, seconds, rotational period in hours):        
   GM= n.a.                RAD= n.a.               ROTPER= n.a.                
   H= 24.5                 G= .150                 B-V= n.a.                   
                           ALBEDO= n.a.            STYP= n.a.                  
*******************************************************************************
 Date__(UT)__HR:MN     R.A._________(ICRF)_________DEC
******************************************************
$$SOE
 2018-Dec-22 08:04  m  14 20 01.963992 -09 26 14.05318
 2018-Dec-22 08:05  m  14 20 02.059922 -09 26 14.84398
 2018-Dec-22 08:06  m  14 20 02.155845 -09 26 15.63481
 2018-Dec-22 08:07  m  14 20 02.251763 -09 26 16.42568
 2018-Dec-22 08:08  m  14 20 02.347674 -09 26 17.21658
 2018-Dec-22 08:09  m  14 20 02.443579 -09 26 18.00752
 2018-Dec-22 08:10  m  14 20 02.539479 -09 26 18.79849
 2018-Dec-22 08:11  m  14 20 02.635372 -09 26 19.58950
 2018-Dec-22 08:12  m  14 20 02.731258 -09 26 20.38054
 2018-Dec-22 08:13  m  14 20 02.827139 -09 26 21.17161
 2018-Dec-22 08:14  m  14 20 02.923013 -09 26 21.96272
 2018-Dec-22 08:15  m  14 20 03.018880 -09 26 22.75386
 2018-Dec-22 08:16  m  14 20 03.114741 -09 26 23.54503
 2018-Dec-22 08:17  m  14 20 03.210595 -09 26 24.33624
 2018-Dec-22 08:18  m  14 20 03.306443 -09 26 25.12749
 2018-Dec-22 08:19  m  14 20 03.402284 -09 26 25.91876
 2018-Dec-22 08:20  m  14 20 03.498118 -09 26 26.71007
 2018-Dec-22 08:21  m  14 20 03.593945 -09 26 27.50142
 2018-Dec-22 08:22  m  14 20 03.689765 -09 26 28.29279
 2018-Dec-22 08:23  m  14 20 03.785578 -09 26 29.08420
 2018-Dec-22 08:24  m  14 20 03.881384 -09 26 29.87564
 2018-Dec-22 08:25  m  14 20 03.977183 -09 26 30.66712
 2018-Dec-22 08:26  m  14 20 04.072974 -09 26 31.45863
 2018-Dec-22 08:27  m  14 20 04.168759 -09 26 32.25017
 2018-Dec-22 08:28  m  14 20 04.264535 -09 26 33.04175
 2018-Dec-22 08:29  m  14 20 04.360305 -09 26 33.83335
 2018-Dec-22 08:30  m  14 20 04.456067 -09 26 34.62500
 2018-Dec-22 08:31  m  14 20 04.551821 -09 26 35.41667
 2018-Dec-22 08:32  m  14 20 04.647568 -09 26 36.20837
 2018-Dec-22 08:33  m  14 20 04.743307 -09 26 37.00011
 2018-Dec-22 08:34  m  14 20 04.839038 -09 26 37.79188
 2018-Dec-22 08:35  m  14 20 04.934762 -09 26 38.58368
 2018-Dec-22 08:36  m  14 20 05.030477 -09 26 39.37552
 2018-Dec-22 08:37  m  14 20 05.126185 -09 26 40.16739
 2018-Dec-22 08:38  m  14 20 05.221884 -09 26 40.95928
 2018-Dec-22 08:39  m  14 20 05.317576 -09 26 41.75122
 2018-Dec-22 08:40  m  14 20 05.413259 -09 26 42.54318
 2018-Dec-22 08:41  m  14 20 05.508934 -09 26 43.33517
 2018-Dec-22 08:42  m  14 20 05.604601 -09 26 44.12720
 2018-Dec-22 08:43  m  14 20 05.700260 -09 26 44.91926
 2018-Dec-22 08:44  m  14 20 05.795910 -09 26 45.71134
 2018-Dec-22 08:45  m  14 20 05.891551 -09 26 46.50347
 2018-Dec-22 08:46  m  14 20 05.987184 -09 26 47.29562
 2018-Dec-22 08:47  m  14 20 06.082809 -09 26 48.08780
 2018-Dec-22 08:48  m  14 20 06.178425 -09 26 48.88001
 2018-Dec-22 08:49  m  14 20 06.274032 -09 26 49.67226
 2018-Dec-22 08:50  m  14 20 06.369630 -09 26 50.46453
 2018-Dec-22 08:51  m  14 20 06.465220 -09 26 51.25684
 2018-Dec-22 08:52  m  14 20 06.560800 -09 26 52.04918
 2018-Dec-22 08:53  m  14 20 06.656372 -09 26 52.84155
 2018-Dec-22 08:54  m  14 20 06.751934 -09 26 53.63394
 2018-Dec-22 08:55  m  14 20 06.847488 -09 26 54.42637
 2018-Dec-22 08:56  m  14 20 06.943032 -09 26 55.21883
 2018-Dec-22 08:57  m  14 20 07.038567 -09 26 56.01132
 2018-Dec-22 08:58  m  14 20 07.134093 -09 26 56.80384
 2018-Dec-22 08:59  m  14 20 07.229609 -09 26 57.59639
 2018-Dec-22 09:00  m  14 20 07.325116 -09 26 58.38897
 2018-Dec-22 09:01  m  14 20 07.420613 -09 26 59.18158
 2018-Dec-22 09:02  m  14 20 07.516101 -09 26 59.97421
 2018-Dec-22 09:03  m  14 20 07.611580 -09 27 00.76688
 2018-Dec-22 09:04  m  14 20 07.707049 -09 27 01.55958
 2018-Dec-22 09:05  m  14 20 07.802508 -09 27 02.35231
 2018-Dec-22 09:06  m  14 20 07.897957 -09 27 03.14506
 2018-Dec-22 09:07  m  14 20 07.993396 -09 27 03.93785
 2018-Dec-22 09:08  m  14 20 08.088826 -09 27 04.73066
 2018-Dec-22 09:09  m  14 20 08.184246 -09 27 05.52351
 2018-Dec-22 09:10  m  14 20 08.279655 -09 27 06.31638
 2018-Dec-22 09:11  m  14 20 08.375055 -09 27 07.10928
 2018-Dec-22 09:12  m  14 20 08.470444 -09 27 07.90221
 2018-Dec-22 09:13  m  14 20 08.565824 -09 27 08.69516
 2018-Dec-22 09:14  m  14 20 08.661193 -09 27 09.48815
 2018-Dec-22 09:15  m  14 20 08.756551 -09 27 10.28117
 2018-Dec-22 09:16  m  14 20 08.851900 -09 27 11.07421
 2018-Dec-22 09:17  m  14 20 08.947238 -09 27 11.86728
 2018-Dec-22 09:18  m  14 20 09.042565 -09 27 12.66038
 2018-Dec-22 09:19  m  14 20 09.137882 -09 27 13.45350
 2018-Dec-22 09:20  m  14 20 09.233188 -09 27 14.24666
 2018-Dec-22 09:21  m  14 20 09.328484 -09 27 15.03984
 2018-Dec-22 09:22  m  14 20 09.423769 -09 27 15.83305
 2018-Dec-22 09:23  m  14 20 09.519043 -09 27 16.62628
 2018-Dec-22 09:24  m  14 20 09.614307 -09 27 17.41954
 2018-Dec-22 09:25  m  14 20 09.709559 -09 27 18.21284
 2018-Dec-22 09:26  m  14 20 09.804801 -09 27 19.00615
 2018-Dec-22 09:27  m  14 20 09.900032 -09 27 19.79950
 2018-Dec-22 09:28  m  14 20 09.995251 -09 27 20.59287
 2018-Dec-22 09:29  m  14 20 10.090460 -09 27 21.38626
 2018-Dec-22 09:30  m  14 20 10.185657 -09 27 22.17969
 2018-Dec-22 09:31  m  14 20 10.280844 -09 27 22.97314
 2018-Dec-22 09:32  m  14 20 10.376019 -09 27 23.76661
 2018-Dec-22 09:33  m  14 20 10.471182 -09 27 24.56012
 2018-Dec-22 09:34  m  14 20 10.566335 -09 27 25.35365
 2018-Dec-22 09:35  m  14 20 10.661476 -09 27 26.14720
 2018-Dec-22 09:36  m  14 20 10.756605 -09 27 26.94078
 2018-Dec-22 09:37  m  14 20 10.851723 -09 27 27.73439
 2018-Dec-22 09:38  m  14 20 10.946829 -09 27 28.52802
 2018-Dec-22 09:39  m  14 20 11.041924 -09 27 29.32167
 2018-Dec-22 09:40  m  14 20 11.137007 -09 27 30.11535
 2018-Dec-22 09:41  m  14 20 11.232078 -09 27 30.90906
 2018-Dec-22 09:42  m  14 20 11.327138 -09 27 31.70279
 2018-Dec-22 09:43  m  14 20 11.422186 -09 27 32.49655
 2018-Dec-22 09:44  m  14 20 11.517221 -09 27 33.29033
 2018-Dec-22 09:45  m  14 20 11.612245 -09 27 34.08414
 2018-Dec-22 09:46  m  14 20 11.707257 -09 27 34.87797
 2018-Dec-22 09:47  m  14 20 11.802257 -09 27 35.67182
 2018-Dec-22 09:48  m  14 20 11.897245 -09 27 36.46570
 2018-Dec-22 09:49  m  14 20 11.992220 -09 27 37.25960
 2018-Dec-22 09:50  m  14 20 12.087184 -09 27 38.05353
 2018-Dec-22 09:51  m  14 20 12.182135 -09 27 38.84748
 2018-Dec-22 09:52  m  14 20 12.277074 -09 27 39.64145
 2018-Dec-22 09:53  m  14 20 12.372001 -09 27 40.43545
 2018-Dec-22 09:54  m  14 20 12.466915 -09 27 41.22947
 2018-Dec-22 09:55  m  14 20 12.561816 -09 27 42.02351
 2018-Dec-22 09:56  m  14 20 12.656706 -09 27 42.81758
 2018-Dec-22 09:57  m  14 20 12.751582 -09 27 43.61167
 2018-Dec-22 09:58  m  14 20 12.846447 -09 27 44.40578
 2018-Dec-22 09:59  m  14 20 12.941298 -09 27 45.19992
 2018-Dec-22 10:00  m  14 20 13.036137 -09 27 45.99408
 2018-Dec-22 10:01  m  14 20 13.130963 -09 27 46.78826
 2018-Dec-22 10:02  m  14 20 13.225776 -09 27 47.58246
 2018-Dec-22 10:03  m  14 20 13.320577 -09 27 48.37668
 2018-Dec-22 10:04  m  14 20 13.415364 -09 27 49.17093
 2018-Dec-22 10:05  m  14 20 13.510139 -09 27 49.96520
 2018-Dec-22 10:06  m  14 20 13.604901 -09 27 50.75949
